STARLINK-5519           
1 57223U 23094F   25210.23762566  .00000149  00000+0  26103-4 0  9993
2 57223  43.0027 164.7927 0001100 272.3815  87.6901 15.02534346113507
STARLINK-5983           
1 57224U 23094G   25210.56335374  .00000375  00000+0  42838-4 0  9997
2 57224  43.0032 162.9396 0001110 276.9944  83.0772 15.02535782113554
STARLINK-6294           
1 57225U 23094H   25210.57223058  .00000316  00000+0  38477-4 0  9993
2 57225  43.0021 162.9981 0001017 276.8794  83.1933 15.02536528113796
STARLINK-6350           
1 57226U 23094J   25210.55225552 -.00000081  00000+0  90420-5 0  9990
2 57226  43.0031 162.8536 0001121 273.2882  86.7832 15.02534173113553
STARLINK-5996           
1 57227U 23094K   25210.55669511  .00000353  00000+0  41210-4 0  9991
2 57227  43.0030 162.8882 0001103 278.9515  81.1203 15.02534994113554
STARLINK-6230           
1 57228U 23094L   25210.15005651  .00000182  00000+0  28564-4 0  9994
2 57228  43.0026 164.9956 0000945 274.8323  85.2412 15.02537483113496
STARLINK-6233           
1 57229U 23094M   25210.55558386  .00000331  00000+0  39567-4 0  9998
2 57229  43.0042 162.8776 0001256 272.5444  87.5255 15.02534975113557
STARLINK-6250           
1 57230U 23094N   25210.14450674  .00000283  00000+0  35977-4 0  9993
2 57230  43.0027 164.9526 0000880 271.2072  88.8670 15.02536578113492
STARLINK-5840           
1 57231U 23094P   25210.91893762 -.00001042  00000+0 -62123-4 0  9997
2 57231  43.0021 160.4431 0000888 283.3579  76.7164 15.02529021113610
STARLINK-5872           
1 57232U 23094Q   25210.58543366  .00000782  00000+0  72995-4 0  9999
2 57232  43.0029 162.2378 0001066 268.2487  91.8233 15.02522805113807
STARLINK-5866           
1 57233U 23094R   25210.59320178  .00000165  00000+0  27321-4 0  9993
2 57233  43.0033 162.3014 0001106 275.6819  84.3897 15.02536274113748
STARLINK-6368           
1 57234U 23094S   25210.58321642 -.00000088  00000+0  85591-5 0  9999
2 57234  43.0026 162.2207 0001073 270.9147  89.1572 15.02532952113741
STARLINK-6360           
1 57235U 23094T   25210.59542140  .00000620  00000+0  60998-4 0  9993
2 57235  43.0030 162.3172 0001196 270.0729  89.9976 15.02536482113740
STARLINK-6315           
1 57236U 23094U   25210.52376894  .00000426  00000+0  46611-4 0  9998
2 57236  43.0036 150.4989 0000896 275.7147  84.3593 15.02538252113698
STARLINK-6365           
1 57237U 23094V   25210.85578385  .00000042  00000+0  18148-4 0  9992
2 57237  43.0023 160.8306 0001163 269.2554  90.8155 15.02536058113600
STARLINK-6334           
1 57238U 23094W   25210.51600184  .00000171  00000+0  27696-4 0  9990
2 57238  43.0036 150.4359 0001134 260.7695  99.3019 15.02536979113692
STARLINK-6330           
1 57239U 23094X   25210.58210505  .00000012  00000+0  15975-4 0  9993
2 57239  43.0026 162.2161 0000828 251.9183 108.1569 15.02537843113563
