[{"OBJECT_NAME":"STARLINK-5519","OBJECT_ID":"2023-094F","EPOCH":"2025-07-29T05:42:10.857024","MEAN_MOTION":15.02534346,"ECCENTRICITY":0.00011,"INCLINATION":43.0027,"RA_OF_ASC_NODE":164.7927,"ARG_OF_PERICENTER":272.3815,"MEAN_ANOMALY":87.6901,"EPHEMERIS_TYPE":0,"CLASSIFICATION_TYPE":"U","NORAD_CAT_ID":57223,"ELEMENT_SET_NO":999,"REV_AT_EPOCH":11350,"BSTAR":2.6103e-5,"MEAN_MOTION_DOT":1.49e-6,"MEAN_MOTION_DDOT":0},{"OBJECT_NAME":"STARLINK-5983","OBJECT_ID":"2023-094G","EPOCH":"2025-07-29T13:31:13.763136","MEAN_MOTION":15.02535782,"ECCENTRICITY":0.000111,"INCLINATION":43.0032,"RA_OF_ASC_NODE":162.9396,"ARG_OF_PERICENTER":276.9944,"MEAN_ANOMALY":83.0772,"EPHEMERIS_TYPE":0,"CLASSIFICATION_TYPE":"U","NORAD_CAT_ID":57224,"ELEMENT_SET_NO":999,"REV_AT_EPOCH":11355,"BSTAR":4.2838e-5,"MEAN_MOTION_DOT":3.75e-6,"MEAN_MOTION_DDOT":0},{"OBJECT_NAME":"STARLINK-6294","OBJECT_ID":"2023-094H","EPOCH":"2025-07-29T13:44:00.722112","MEAN_MOTION":15.02536528,"ECCENTRICITY":0.0001017,"INCLINATION":43.0021,"RA_OF_ASC_NODE":162.9981,"ARG_OF_PERICENTER":276.8794,"MEAN_ANOMALY":83.1933,"EPHEMERIS_TYPE":0,"CLASSIFICATION_TYPE":"U","NORAD_CAT_ID":57225,"ELEMENT_SET_NO":999,"REV_AT_EPOCH":11379,"BSTAR":3.8477e-5,"MEAN_MOTION_DOT":3.16e-6,"MEAN_MOTION_DDOT":0},{"OBJECT_NAME":"STARLINK-6350","OBJECT_ID":"2023-094J","EPOCH":"2025-07-29T13:15:14.876928","MEAN_MOTION":15.02534173,"ECCENTRICITY":0.0001121,"INCLINATION":43.0031,"RA_OF_ASC_NODE":162.8536,"ARG_OF_PERICENTER":273.2882,"MEAN_ANOMALY":86.7832,"EPHEMERIS_TYPE":0,"CLASSIFICATION_TYPE":"U","NORAD_CAT_ID":57226,"ELEMENT_SET_NO":999,"REV_AT_EPOCH":11355,"BSTAR":9.042e-6,"MEAN_MOTION_DOT":-8.1e-7,"MEAN_MOTION_DDOT":0},{"OBJECT_NAME":"STARLINK-5996","OBJECT_ID":"2023-094K","EPOCH":"2025-07-29T13:21:38.457504","MEAN_MOTION":15.02534994,"ECCENTRICITY":0.0001103,"INCLINATION":43.003,"RA_OF_ASC_NODE":162.8882,"ARG_OF_PERICENTER":278.9515,"MEAN_ANOMALY":81.1203,"EPHEMERIS_TYPE":0,"CLASSIFICATION_TYPE":"U","NORAD_CAT_ID":57227,"ELEMENT_SET_NO":999,"REV_AT_EPOCH":11355,"BSTAR":4.121e-5,"MEAN_MOTION_DOT":3.53e-6,"MEAN_MOTION_DDOT":0},{"OBJECT_NAME":"STARLINK-6230","OBJECT_ID":"2023-094L","EPOCH":"2025-07-29T03:36:04.882464","MEAN_MOTION":15.02537483,"ECCENTRICITY":9.45e-5,"INCLINATION":43.0026,"RA_OF_ASC_NODE":164.9956,"ARG_OF_PERICENTER":274.8323,"MEAN_ANOMALY":85.2412,"EPHEMERIS_TYPE":0,"CLASSIFICATION_TYPE":"U","NORAD_CAT_ID":57228,"ELEMENT_SET_NO":999,"REV_AT_EPOCH":11349,"BSTAR":2.8564e-5,"MEAN_MOTION_DOT":1.82e-6,"MEAN_MOTION_DDOT":0},{"OBJECT_NAME":"STARLINK-6233","OBJECT_ID":"2023-094M","EPOCH":"2025-07-29T13:20:02.445504","MEAN_MOTION":15.02534975,"ECCENTRICITY":0.0001256,"INCLINATION":43.0042,"RA_OF_ASC_NODE":162.8776,"ARG_OF_PERICENTER":272.5444,"MEAN_ANOMALY":87.5255,"EPHEMERIS_TYPE":0,"CLASSIFICATION_TYPE":"U","NORAD_CAT_ID":57229,"ELEMENT_SET_NO":999,"REV_AT_EPOCH":11355,"BSTAR":3.9567e-5,"MEAN_MOTION_DOT":3.31e-6,"MEAN_MOTION_DDOT":0},{"OBJECT_NAME":"STARLINK-6250","OBJECT_ID":"2023-094N","EPOCH":"2025-07-29T03:28:05.382336","MEAN_MOTION":15.02536578,"ECCENTRICITY":8.8e-5,"INCLINATION":43.0027,"RA_OF_ASC_NODE":164.9526,"ARG_OF_PERICENTER":271.2072,"MEAN_ANOMALY":88.867,"EPHEMERIS_TYPE":0,"CLASSIFICATION_TYPE":"U","NORAD_CAT_ID":57230,"ELEMENT_SET_NO":999,"REV_AT_EPOCH":11349,"BSTAR":3.5977e-5,"MEAN_MOTION_DOT":2.83e-6,"MEAN_MOTION_DDOT":0},{"OBJECT_NAME":"STARLINK-5840","OBJECT_ID":"2023-094P","EPOCH":"2025-07-29T22:03:16.210368","MEAN_MOTION":15.02529021,"ECCENTRICITY":8.88e-5,"INCLINATION":43.0021,"RA_OF_ASC_NODE":160.4431,"ARG_OF_PERICENTER":283.3579,"MEAN_ANOMALY":76.7164,"EPHEMERIS_TYPE":0,"CLASSIFICATION_TYPE":"U","NORAD_CAT_ID":57231,"ELEMENT_SET_NO":999,"REV_AT_EPOCH":11361,"BSTAR":-6.2123e-5,"MEAN_MOTION_DOT":-1.042e-5,"MEAN_MOTION_DDOT":0},{"OBJECT_NAME":"STARLINK-5872","OBJECT_ID":"2023-094Q","EPOCH":"2025-07-29T14:03:01.468224","MEAN_MOTION":15.02522805,"ECCENTRICITY":0.0001066,"INCLINATION":43.0029,"RA_OF_ASC_NODE":162.2378,"ARG_OF_PERICENTER":268.2487,"MEAN_ANOMALY":91.8233,"EPHEMERIS_TYPE":0,"CLASSIFICATION_TYPE":"U","NORAD_CAT_ID":57232,"ELEMENT_SET_NO":999,"REV_AT_EPOCH":11380,"BSTAR":7.2995e-5,"MEAN_MOTION_DOT":7.82e-6,"MEAN_MOTION_DDOT":0},{"OBJECT_NAME":"STARLINK-5866","OBJECT_ID":"2023-094R","EPOCH":"2025-07-29T14:14:12.633792","MEAN_MOTION":15.02536274,"ECCENTRICITY":0.0001106,"INCLINATION":43.0033,"RA_OF_ASC_NODE":162.3014,"ARG_OF_PERICENTER":275.6819,"MEAN_ANOMALY":84.3897,"EPHEMERIS_TYPE":0,"CLASSIFICATION_TYPE":"U","NORAD_CAT_ID":57233,"ELEMENT_SET_NO":999,"REV_AT_EPOCH":11374,"BSTAR":2.7321e-5,"MEAN_MOTION_DOT":1.65e-6,"MEAN_MOTION_DDOT":0},{"OBJECT_NAME":"STARLINK-6368","OBJECT_ID":"2023-094S","EPOCH":"2025-07-29T13:59:49.898688","MEAN_MOTION":15.02532952,"ECCENTRICITY":0.0001073,"INCLINATION":43.0026,"RA_OF_ASC_NODE":162.2207,"ARG_OF_PERICENTER":270.9147,"MEAN_ANOMALY":89.1572,"EPHEMERIS_TYPE":0,"CLASSIFICATION_TYPE":"U","NORAD_CAT_ID":57234,"ELEMENT_SET_NO":999,"REV_AT_EPOCH":11374,"BSTAR":8.5591e-6,"MEAN_MOTION_DOT":-8.8e-7,"MEAN_MOTION_DDOT":0},{"OBJECT_NAME":"STARLINK-6360","OBJECT_ID":"2023-094T","EPOCH":"2025-07-29T14:17:24.408960","MEAN_MOTION":15.02536482,"ECCENTRICITY":0.0001196,"INCLINATION":43.003,"RA_OF_ASC_NODE":162.3172,"ARG_OF_PERICENTER":270.0729,"MEAN_ANOMALY":89.9976,"EPHEMERIS_TYPE":0,"CLASSIFICATION_TYPE":"U","NORAD_CAT_ID":57235,"ELEMENT_SET_NO":999,"REV_AT_EPOCH":11374,"BSTAR":6.0998e-5,"MEAN_MOTION_DOT":6.2e-6,"MEAN_MOTION_DDOT":0},{"OBJECT_NAME":"STARLINK-6315","OBJECT_ID":"2023-094U","EPOCH":"2025-07-29T12:34:13.636416","MEAN_MOTION":15.02538252,"ECCENTRICITY":8.96e-5,"INCLINATION":43.0036,"RA_OF_ASC_NODE":150.4989,"ARG_OF_PERICENTER":275.7147,"MEAN_ANOMALY":84.3593,"EPHEMERIS_TYPE":0,"CLASSIFICATION_TYPE":"U","NORAD_CAT_ID":57236,"ELEMENT_SET_NO":999,"REV_AT_EPOCH":11369,"BSTAR":4.6611e-5,"MEAN_MOTION_DOT":4.26e-6,"MEAN_MOTION_DDOT":0},{"OBJECT_NAME":"STARLINK-6365","OBJECT_ID":"2023-094V","EPOCH":"2025-07-29T20:32:19.724640","MEAN_MOTION":15.02536058,"ECCENTRICITY":0.0001163,"INCLINATION":43.0023,"RA_OF_ASC_NODE":160.8306,"ARG_OF_PERICENTER":269.2554,"MEAN_ANOMALY":90.8155,"EPHEMERIS_TYPE":0,"CLASSIFICATION_TYPE":"U","NORAD_CAT_ID":57237,"ELEMENT_SET_NO":999,"REV_AT_EPOCH":11360,"BSTAR":1.8148e-5,"MEAN_MOTION_DOT":4.2e-7,"MEAN_MOTION_DDOT":0},{"OBJECT_NAME":"STARLINK-6334","OBJECT_ID":"2023-094W","EPOCH":"2025-07-29T12:23:02.558976","MEAN_MOTION":15.02536979,"ECCENTRICITY":0.0001134,"INCLINATION":43.0036,"RA_OF_ASC_NODE":150.4359,"ARG_OF_PERICENTER":260.7695,"MEAN_ANOMALY":99.3019,"EPHEMERIS_TYPE":0,"CLASSIFICATION_TYPE":"U","NORAD_CAT_ID":57238,"ELEMENT_SET_NO":999,"REV_AT_EPOCH":11369,"BSTAR":2.7696e-5,"MEAN_MOTION_DOT":1.71e-6,"MEAN_MOTION_DDOT":0},{"OBJECT_NAME":"STARLINK-6330","OBJECT_ID":"2023-094X","EPOCH":"2025-07-29T13:58:13.876320","MEAN_MOTION":15.02537843,"ECCENTRICITY":8.28e-5,"INCLINATION":43.0026,"RA_OF_ASC_NODE":162.2161,"ARG_OF_PERICENTER":251.9183,"MEAN_ANOMALY":108.1569,"EPHEMERIS_TYPE":0,"CLASSIFICATION_TYPE":"U","NORAD_CAT_ID":57239,"ELEMENT_SET_NO":999,"REV_AT_EPOCH":11356,"BSTAR":1.5975e-5,"MEAN_MOTION_DOT":1.2e-7,"MEAN_MOTION_DDOT":0}]
